IRIDIUM 39              
1 25042U 97069D   25113.85686789  .00001396  00000+0  36109-3 0  9993
2 25042  86.3928 234.4068 0019754 125.1822 235.1236 14.49137617441098
IRIDIUM 38              
1 25043U 97069E   25114.45267024  .00000902  00000+0  29177-3 0  9997
2 25043  86.3934 255.7567 0000213  87.9897 272.1326 14.38058791438497
IRIDIUM 42              
1 25077U 97077A   25113.69627612  .00000894  00000+0  29950-3 0  9990
2 25077  86.3926 262.1820 0001461  82.6293 277.5070 14.36297387433378
IRIDIUM 44              
1 25078U 97077B   25114.42308339  .00000819  00000+0  25298-3 0  9993
2 25078  86.3956 243.9322 0002294 144.4886 215.6466 14.40188476435991
IRIDIUM 45              
1 25104U 97082A   25113.98739979  .00023164  00000+0  87396-3 0  9992
2 25104  86.3566  74.1642 0122129 172.7875 187.5164 15.20095329444051
IRIDIUM 24              
1 25105U 97082B   25113.70185237  .00001021  00000+0  30512-3 0  9991
2 25105  86.3859 103.4161 0009098 255.7467 104.2722 14.42031591435361
IRIDIUM 51              
1 25262U 98018A   25114.86973654  .00058699  00000+0  14441-2 0  9996
2 25262  86.3820  82.1511 0098764  94.6712 266.5828 15.35402200439057
IRIDIUM 57              
1 25273U 98019B   25114.23343486  .00000548  00000+0  18240-3 0  9996
2 25273  86.4001 167.8584 0002215  93.5835 266.5615 14.35851872417256
